TIGER-8                 
1 59120U 24043Y   26195.94021823  .00005404  00000+0  11586-3 0  9998
2 59120  97.5568 345.6751 0008917 103.5105 256.7138 15.45165462132074
TIGER-7                 
1 59141U 24043AV  26195.97512188  .00006785  00000+0  12562-3 0  9991
2 59141  97.5512 348.2179 0006785  77.6175 282.5834 15.49345534132274
