{"fetched_at":"2026-07-15T17:47:36.812Z","source":"https://celestrak.org/NORAD/elements/gp.php?NAME=TIGER&FORMAT=JSON","constellation":"oq-technology","records":[{"OBJECT_NAME":"TIGER-8","OBJECT_ID":"2024-043Y","EPOCH":"2026-07-14T22:33:54.855072","CLASSIFICATION_TYPE":"U","MEAN_MOTION":15.45165462,"ECCENTRICITY":0.0008917,"INCLINATION":97.5568,"RA_OF_ASC_NODE":345.6751,"ARG_OF_PERICENTER":103.5105,"MEAN_ANOMALY":256.7138,"EPHEMERIS_TYPE":0,"NORAD_CAT_ID":59120,"ELEMENT_SET_NO":999,"REV_AT_EPOCH":13207,"BSTAR":0.00011586,"MEAN_MOTION_DOT":0.00005404,"MEAN_MOTION_DDOT":0},{"OBJECT_NAME":"TIGER-7","OBJECT_ID":"2024-043AV","EPOCH":"2026-07-14T23:24:10.530432","CLASSIFICATION_TYPE":"U","MEAN_MOTION":15.49345534,"ECCENTRICITY":0.0006785,"INCLINATION":97.5512,"RA_OF_ASC_NODE":348.2179,"ARG_OF_PERICENTER":77.6175,"MEAN_ANOMALY":282.5834,"EPHEMERIS_TYPE":0,"NORAD_CAT_ID":59141,"ELEMENT_SET_NO":999,"REV_AT_EPOCH":13227,"BSTAR":0.00012562,"MEAN_MOTION_DOT":0.00006785,"MEAN_MOTION_DDOT":0}]}
